start=new Date('2022-08-19T00:00:00.000Z').valueOf();
sats=[{"MEAN_ELEMENT_THEORY":"SGP4","CLASSIFICATION_TYPE":"U","OBJECT_TYPE":"PAYLOAD","CENTER_NAME":"EARTH","LAUNCH_DATE":"2020-01-07","ARG_OF_PERICENTER":"90.3525","REV_AT_EPOCH":"14531","OBJECT_ID":"2020-001U","NORAD_CAT_ID":"44932","MEAN_ANOMALY":"269.7596","DECAY_DATE":null,"BSTAR":"0.00013894000000","SEMIMAJOR_AXIS":"6925.331","GP_ID":"210472845","TLE_LINE2":"2 44932  53.0581  57.3861 0001151  90.3525 269.7596 15.06405831145319","INCLINATION":"53.0581","FILE":"3539615","RA_OF_ASC_NODE":"57.3861","SITE":"AFETR","TLE_LINE1":"1 44932U 20001U   22230.83890974  .00001789  00000-0  13894-3 0  9995","COUNTRY_CODE":"US","EPOCH":"2022-08-18T20:08:01.801536","PERIAPSIS":"546.399","EPHEMERIS_TYPE":"0","TIME_SYSTEM":"UTC","ELEMENT_SET_NO":"999","MEAN_MOTION_DDOT":"0.0000000000000","REF_FRAME":"TEME","APOAPSIS":"547.993","MEAN_MOTION":"15.06405831","RCS_SIZE":"LARGE","PERIOD":"95.592","MEAN_MOTION_DOT":"0.00001789","ECCENTRICITY":"0.00011510","OBJECT_NAME":"STARLINK-1130"},{"EPHEMERIS_TYPE":"0","PERIAPSIS":"546.195","TLE_LINE1":"1 44933U 20001V   22230.73201709  .00001193  00000-0  98940-4 0  9992","SITE":"AFETR","EPOCH":"2022-08-18T17:34:06.276576","COUNTRY_CODE":"US","RCS_SIZE":"LARGE","MEAN_MOTION":"15.06402267","APOAPSIS":"548.218","ECCENTRICITY":"0.00014610","PERIOD":"95.592","MEAN_MOTION_DOT":"0.00001193","OBJECT_NAME":"STARLINK-1144","MEAN_MOTION_DDOT":"0.0000000000000","ELEMENT_SET_NO":"999","TIME_SYSTEM":"UTC","REF_FRAME":"TEME","OBJECT_TYPE":"PAYLOAD","REV_AT_EPOCH":"14535","LAUNCH_DATE":"2020-01-07","ARG_OF_PERICENTER":"76.3375","CENTER_NAME":"EARTH","MEAN_ELEMENT_THEORY":"SGP4","CLASSIFICATION_TYPE":"U","INCLINATION":"53.0563","TLE_LINE2":"2 44933  53.0563  57.8805 0001461  76.3375 283.7777 15.06402267145355","SEMIMAJOR_AXIS":"6925.342","GP_ID":"210472094","BSTAR":"0.00009894000000","RA_OF_ASC_NODE":"57.8805","FILE":"3539615","NORAD_CAT_ID":"44933","OBJECT_ID":"2020-001V","DECAY_DATE":null,"MEAN_ANOMALY":"283.7777"},{"SITE":"AFETR","TLE_LINE1":"1 44934U 20001W   22230.74491689  .00004206  00000-0  30103-3 0  9996","COUNTRY_CODE":"US","EPOCH":"2022-08-18T17:52:40.819296","PERIAPSIS":"546.439","EPHEMERIS_TYPE":"0","TIME_SYSTEM":"UTC","ELEMENT_SET_NO":"999","MEAN_MOTION_DDOT":"0.0000000000000","REF_FRAME":"TEME","APOAPSIS":"547.939","MEAN_MOTION":"15.06407881","RCS_SIZE":"LARGE","MEAN_MOTION_DOT":"0.00004206","PERIOD":"95.592","OBJECT_NAME":"STARLINK-1071","ECCENTRICITY":"0.00010830","MEAN_ELEMENT_THEORY":"SGP4","CLASSIFICATION_TYPE":"U","OBJECT_TYPE":"PAYLOAD","CENTER_NAME":"EARTH","LAUNCH_DATE":"2020-01-07","ARG_OF_PERICENTER":"101.2208","REV_AT_EPOCH":"14434","OBJECT_ID":"2020-001W","NORAD_CAT_ID":"44934","MEAN_ANOMALY":"258.8903","DECAY_DATE":null,"BSTAR":"0.00030103000000","SEMIMAJOR_AXIS":"6925.324","GP_ID":"210472344","TLE_LINE2":"2 44934  53.0573  37.8237 0001083 101.2208 258.8903 15.06407881144346","INCLINATION":"53.0573","RA_OF_ASC_NODE":"37.8237","FILE":"3539615"},{"PERIAPSIS":"546.097","EPHEMERIS_TYPE":"0","SITE":"AFETR","TLE_LINE1":"1 44937U 20001Z   22230.78914805  .00009293  00000-0  64171-3 0  9996","COUNTRY_CODE":"US","EPOCH":"2022-08-18T18:56:22.391520","APOAPSIS":"548.241","MEAN_MOTION":"15.06414659","RCS_SIZE":"LARGE","PERIOD":"95.591","OBJECT_NAME":"STARLINK-1079","MEAN_MOTION_DOT":"0.00009293","ECCENTRICITY":"0.00015480","TIME_SYSTEM":"UTC","ELEMENT_SET_NO":"999","MEAN_MOTION_DDOT":"0.0000000000000","REF_FRAME":"TEME","OBJECT_TYPE":"PAYLOAD","CENTER_NAME":"EARTH","ARG_OF_PERICENTER":"95.2415","LAUNCH_DATE":"2020-01-07","REV_AT_EPOCH":"14435","MEAN_ELEMENT_THEORY":"SGP4","CLASSIFICATION_TYPE":"U","BSTAR":"0.00064171000000","SEMIMAJOR_AXIS":"6925.304","GP_ID":"210473096","TLE_LINE2":"2 44937  53.0556  37.6164 0001548  95.2415 264.8751 15.06414659144355","INCLINATION":"53.0556","FILE":"3539615","RA_OF_ASC_NODE":"37.6164","OBJECT_ID":"2020-001Z","NORAD_CAT_ID":"44937","MEAN_ANOMALY":"264.8751","DECAY_DATE":null},{"RA_OF_ASC_NODE":"41.3411","FILE":"3539281","TLE_LINE2":"2 44938  53.0554  41.3411 0001393  84.4227 275.6921 15.06402526144225","INCLINATION":"53.0554","BSTAR":"-0.00000510550000","SEMIMAJOR_AXIS":"6925.341","GP_ID":"210438117","MEAN_ANOMALY":"275.6921","DECAY_DATE":null,"OBJECT_ID":"2020-001AA","NORAD_CAT_ID":"44938","REV_AT_EPOCH":"14422","CENTER_NAME":"EARTH","ARG_OF_PERICENTER":"84.4227","LAUNCH_DATE":"2020-01-07","OBJECT_TYPE":"PAYLOAD","CLASSIFICATION_TYPE":"U","MEAN_ELEMENT_THEORY":"SGP4","OBJECT_NAME":"STARLINK-1082","PERIOD":"95.592","MEAN_MOTION_DOT":"-0.00000358","ECCENTRICITY":"0.00013930","MEAN_MOTION":"15.06402526","RCS_SIZE":"LARGE","APOAPSIS":"548.171","REF_FRAME":"TEME","MEAN_MOTION_DDOT":"0.0000000000000","TIME_SYSTEM":"UTC","ELEMENT_SET_NO":"999","PERIAPSIS":"546.241","EPHEMERIS_TYPE":"0","COUNTRY_CODE":"US","EPOCH":"2022-08-17T23:02:08.497248","SITE":"AFETR","TLE_LINE1":"1 44938U 20001AA  22229.95982057 -.00000358  00000-0 -51055-5 0  9992"},{"CLASSIFICATION_TYPE":"U","MEAN_ELEMENT_THEORY":"SGP4","LAUNCH_DATE":"2020-01-07","ARG_OF_PERICENTER":"84.6898","CENTER_NAME":"EARTH","REV_AT_EPOCH":"14431","OBJECT_TYPE":"PAYLOAD","DECAY_DATE":null,"MEAN_ANOMALY":"275.4279","NORAD_CAT_ID":"44939","OBJECT_ID":"2020-001AB","FILE":"3539615","RA_OF_ASC_NODE":"38.6203","GP_ID":"210471596","SEMIMAJOR_AXIS":"6925.361","BSTAR":"0.00007584600000","INCLINATION":"53.0551","TLE_LINE2":"2 44939  53.0551  38.6203 0001645  84.6898 275.4279 15.06395998144315","EPOCH":"2022-08-18T13:32:36.571488","COUNTRY_CODE":"US","TLE_LINE1":"1 44939U 20001AB  22230.56431217  .00000848  00000-0  75846-4 0  9994","SITE":"AFETR","EPHEMERIS_TYPE":"0","PERIAPSIS":"546.087","REF_FRAME":"TEME","ELEMENT_SET_NO":"999","TIME_SYSTEM":"UTC","MEAN_MOTION_DDOT":"0.0000000000000","OBJECT_NAME":"STARLINK-1083","PERIOD":"95.592","MEAN_MOTION_DOT":"0.00000848","ECCENTRICITY":"0.00016450","APOAPSIS":"548.365","MEAN_MOTION":"15.06395998","RCS_SIZE":"LARGE"},{"EPHEMERIS_TYPE":"0","PERIAPSIS":"546.256","EPOCH":"2022-08-18T13:48:31.916160","COUNTRY_CODE":"US","TLE_LINE1":"1 44940U 20001AC  22230.57536940  .00002677  00000-0  19856-3 0  9996","SITE":"AFETR","PERIOD":"95.592","OBJECT_NAME":"STARLINK-1091","MEAN_MOTION_DOT":"0.00002677","ECCENTRICITY":"0.00013910","MEAN_MOTION":"15.06398108","RCS_SIZE":"LARGE","APOAPSIS":"548.183","REF_FRAME":"TEME","MEAN_MOTION_DDOT":"0.0000000000000","ELEMENT_SET_NO":"999","TIME_SYSTEM":"UTC","REV_AT_EPOCH":"14431","LAUNCH_DATE":"2020-01-07","ARG_OF_PERICENTER":"79.1070","CENTER_NAME":"EARTH","OBJECT_TYPE":"PAYLOAD","CLASSIFICATION_TYPE":"U","MEAN_ELEMENT_THEORY":"SGP4","FILE":"3539615","RA_OF_ASC_NODE":"38.5764","INCLINATION":"53.0558","TLE_LINE2":"2 44940  53.0558  38.5764 0001391  79.1070 281.0076 15.06398108144318","SEMIMAJOR_AXIS":"6925.354","GP_ID":"210471846","BSTAR":"0.00019856000000","DECAY_DATE":null,"MEAN_ANOMALY":"281.0076","NORAD_CAT_ID":"44940","OBJECT_ID":"2020-001AC"},{"DECAY_DATE":null,"MEAN_ANOMALY":"279.2136","NORAD_CAT_ID":"44941","OBJECT_ID":"2020-001AD","FILE":"3539615","RA_OF_ASC_NODE":"37.8849","INCLINATION":"53.0563","TLE_LINE2":"2 44941  53.0563  37.8849 0001377  80.9009 279.2136 15.06425075144340","SEMIMAJOR_AXIS":"6925.272","GP_ID":"210472597","BSTAR":"0.00083329000000","CLASSIFICATION_TYPE":"U","MEAN_ELEMENT_THEORY":"SGP4","REV_AT_EPOCH":"14434","ARG_OF_PERICENTER":"80.9009","LAUNCH_DATE":"2020-01-07","CENTER_NAME":"EARTH","OBJECT_TYPE":"PAYLOAD","REF_FRAME":"TEME","MEAN_MOTION_DDOT":"0.0000000000000","ELEMENT_SET_NO":"999","TIME_SYSTEM":"UTC","PERIOD":"95.591","ECCENTRICITY":"0.00013770","MEAN_MOTION_DOT":"0.00012160","OBJECT_NAME":"STARLINK-1094","MEAN_MOTION":"15.06425075","RCS_SIZE":"LARGE","APOAPSIS":"548.090","EPOCH":"2022-08-18T17:31:27.914880","COUNTRY_CODE":"US","TLE_LINE1":"1 44941U 20001AD  22230.73018420  .00012160  00000-0  83329-3 0  9997","SITE":"AFETR","EPHEMERIS_TYPE":"0","PERIAPSIS":"546.183"},{"EPHEMERIS_TYPE":"0","PERIAPSIS":"538.803","TLE_LINE1":"1 44942U 20001AE  22230.49685852  .00012267  00000-0  79056-3 0  9990","SITE":"AFETR","EPOCH":"2022-08-18T11:55:28.576128","COUNTRY_CODE":"US","RCS_SIZE":"LARGE","MEAN_MOTION":"15.08693555","APOAPSIS":"541.583","PERIOD":"95.447","MEAN_MOTION_DOT":"0.00012267","ECCENTRICITY":"0.00020090","OBJECT_NAME":"STARLINK-1096","MEAN_MOTION_DDOT":"0.0000000000000","ELEMENT_SET_NO":"999","TIME_SYSTEM":"UTC","REF_FRAME":"TEME","OBJECT_TYPE":"PAYLOAD","REV_AT_EPOCH":"14432","LAUNCH_DATE":"2020-01-07","ARG_OF_PERICENTER":"80.4256","CENTER_NAME":"EARTH","MEAN_ELEMENT_THEORY":"SGP4","CLASSIFICATION_TYPE":"U","INCLINATION":"53.0559","TLE_LINE2":"2 44942  53.0559  38.0179 0002009  80.4256 279.6961 15.08693555144327","SEMIMAJOR_AXIS":"6918.328","GP_ID":"210451330","BSTAR":"0.00079056000000","FILE":"3539523","RA_OF_ASC_NODE":"38.0179","NORAD_CAT_ID":"44942","OBJECT_ID":"2020-001AE","DECAY_DATE":null,"MEAN_ANOMALY":"279.6961"},{"TLE_LINE1":"1 44943U 20001AF  22230.49427145  .00005070  00000-0  35884-3 0  9995","SITE":"AFETR","EPOCH":"2022-08-18T11:51:45.053280","COUNTRY_CODE":"US","EPHEMERIS_TYPE":"0","PERIAPSIS":"546.130","ELEMENT_SET_NO":"999","TIME_SYSTEM":"UTC","MEAN_MOTION_DDOT":"0.0000000000000","REF_FRAME":"TEME","APOAPSIS":"548.202","MEAN_MOTION":"15.06415616","RCS_SIZE":"LARGE","PERIOD":"95.591","ECCENTRICITY":"0.00014960","MEAN_MOTION_DOT":"0.00005070","OBJECT_NAME":"STARLINK-1100","MEAN_ELEMENT_THEORY":"SGP4","CLASSIFICATION_TYPE":"U","OBJECT_TYPE":"PAYLOAD","ARG_OF_PERICENTER":"86.2634","LAUNCH_DATE":"2020-01-07","CENTER_NAME":"EARTH","REV_AT_EPOCH":"14430","NORAD_CAT_ID":"44943","OBJECT_ID":"2020-001AF","DECAY_DATE":null,"MEAN_ANOMALY":"273.8526","SEMIMAJOR_AXIS":"6925.301","GP_ID":"210438866","BSTAR":"0.00035884000000","INCLINATION":"53.0553","TLE_LINE2":"2 44943  53.0553  38.9413 0001496  86.2634 273.8526 15.06415616144304","RA_OF_ASC_NODE":"38.9413","FILE":"3539281"}];
